GSAT-10                 
1 38779U 12051B   26188.51771105 -.00000149  00000+0  00000+0 0  9998
2 38779   0.0401 241.6547 0007825 213.4040  99.7846  1.00269296 50302
INTELSAT 23 (IS-23)     
1 38867U 12057A   26188.05637558 -.00000270  00000+0  00000+0 0  9999
2 38867   0.0130  52.9192 0000405  98.8720 100.5402  1.00275567 50155
BEIDOU-2 G6             
1 38953U 12059A   26188.30426255 -.00000162  00000+0  00000+0 0  9995
2 38953   4.4692  73.3107 0009105 330.2059  75.2705  1.00269050 50119
LUCH-5B                 
1 38977U 12061A   26188.42689670 -.00000129  00000+0  00000+0 0  9992
2 38977  10.5244  49.6770 0003487 139.6998 233.4585  1.00271756 49813
YAMAL 300K              
1 38978U 12061B   26188.53771128  .00000000  00000+0  00000+0 0  9992
2 38978   0.0141  31.7201 0000795 217.4722  52.8371  1.00270623 49834
STAR ONE C3             
1 38991U 12062A   26188.48666081  .00000000  00000+0  00000+0 0  9993
2 38991   0.0230  32.3060 0002210  92.1439 261.2129  1.00271024 49962
EUTELSAT 21B            
1 38992U 12062B   26188.50564090  .00000145  00000+0  00000+0 0  9994
2 38992   0.0646 357.5124 0003207 108.9876  22.5838  1.00270522 50032
ECHOSTAR 16             
1 39008U 12065A   26188.46359683 -.00000267  00000+0  00000+0 0  9997
2 39008   0.0171  26.7817 0001962  81.3955 282.6582  1.00270487 49848
ZHONGXING-12            
1 39017U 12067A   26188.59009309 -.00000191  00000+0  00000+0 0  9996
2 39017   0.0481  93.7317 0002807   7.3193 124.4397  1.00270247 49719
EUTELSAT 70B            
1 39020U 12069A   26188.51545772 -.00000029  00000+0  00000+0 0  9993
2 39020   0.0631 343.6476 0003448 124.4042  73.4878  1.00273777 49717
YAMAL 402               
1 39022U 12070A   26188.51233771  .00000100  00000+0  00000+0 0  9999
2 39022   1.3137  83.9129 0003738  20.6233  60.2799  1.00272097 49602
SKYNET 5D               
1 39034U 12075A   26188.44067676  .00000114  00000+0  00000+0 0  9993
2 39034   0.0667   6.5395 0003688 109.3321  20.9384  1.00272144 49361
MEXSAT 3                
1 39035U 12075B   26188.47877411  .00000000  00000+0  00000+0 0  9997
2 39035   0.0197  28.8781 0001136  78.3033 235.8198  1.00267623  7255
TDRS 11                 
1 39070U 13004A   26188.51305593  .00000093  00000+0  00000+0 0  9993
2 39070   3.5506  31.5863 0004810  28.0933 236.1722  1.00276695 46890
AMAZONAS 3              
1 39078U 13006A   26188.46437183 -.00000267  00000+0  00000+0 0  9992
2 39078   0.0597 238.4121 0003258 272.7993 240.3816  1.00269034 45118
AZERSPACE 1             
1 39079U 13006B   26188.51060436  .00000148  00000+0  00000+0 0  9999
2 39079   0.0345 273.1398 0001872 229.5688  12.5764  1.00272348 49019
SBIRS GEO-2 (USA 241)   
1 39120U 13011A   26187.92130762 -.00000274  00000+0  00000+0 0  9997
2 39120   4.5312  52.5131 0002010  45.1363 109.1078  1.00271262 48733
EUTELSAT 117 WEST A     
1 39122U 13012A   26188.47834078  .00000002  00000+0  00000+0 0  9990
2 39122   0.0100   6.6089 0002764 104.2675 229.9583  1.00271683 48630
ANIK G1                 
1 39127U 13014A   26188.47998744 -.00000059  00000+0  00000+0 0  9991
2 39127   0.0195  40.2894 0001718  73.6982 236.9487  1.00271478 48458
ZHONGXING-11            
1 39157U 13020A   26188.62474759 -.00000275  00000+0  00000+0 0  9993
2 39157   0.0184  39.2867 0002329  41.4714 167.6534  1.00272265 48102
EUTELSAT 7B             
1 39163U 13022A   26188.36030715  .00000063  00000+0  00000+0 0  9997
2 39163   0.0638 355.5338 0003874  51.5217  14.9749  1.00271280 48148
WGS F5 (USA 243)        
1 39168U 13024A   26188.06334913  .00000000  00000+0  00000+0 0  9999
2 39168   0.0199  24.8211 0000305 189.7934  40.7253  1.00268974 47374
SES-6                   
1 39172U 13026A   26188.49342086 -.00000246  00000+0  00000+0 0  9996
2 39172   0.0156   1.7534 0002477  99.5014 321.3352  1.00270444 47927
IRNSS-1A                
1 39199U 13034A   26186.73027412  .00000068  00000+0  00000+0 0  9993
2 39199  35.7606  63.6043 0017858 181.6646 356.4955  1.00280420 47558
MUOS-2                  
1 39206U 13036A   26188.51222851 -.00000001  00000+0  00000+0 0  9994
2 39206   5.0349  45.5535 0052153 176.5018  59.7730  1.00271100 47390
ALPHASAT                
1 39215U 13038A   26188.07873050  .00000147  00000+0  00000+0 0  9990
2 39215   2.9984   1.1586 0002433 126.5430 210.5787  1.00274018 44212
INSAT-3D                
1 39216U 13038B   26188.52715485 -.00000325  00000+0  00000+0 0  9997
2 39216   1.9753  82.2918 0000512  58.1889 104.3133  1.00272530 47281
WGS F6 (USA 244)        
1 39222U 13041A   26187.69054397  .00000104  00000+0  00000+0 0  9997
2 39222   0.0190  36.9691 0001624 186.5270 174.5993  1.00272216 46252
ES'HAIL 1               
1 39233U 13044A   26188.22140477  .00000158  00000+0  00000+0 0  9996
2 39233   0.0467   0.0019 0002324 108.3214 282.0656  1.00272113 46825
GSAT-7                  
1 39234U 13044B   26188.51615105 -.00000061  00000+0  00000+0 0  9998
2 39234   0.1303  90.4153 0002965 179.2556 275.5804  1.00271409 45463
AMOS-4                  
1 39237U 13045A   26188.51433104  .00000022  00000+0  00000+0 0  9995
2 39237   0.0290  83.6135 0002205 355.2191  96.8118  1.00272809 47168
AEHF-3 (USA 246)        
1 39256U 13050A   26188.45553748  .00000041  00000+0  00000+0 0  9993
2 39256   5.3426  67.0003 0088280 187.6953  70.4821  1.00269133 45857
