OBJECT_NAME,OBJECT_ID,EPOCH,MEAN_MOTION,ECCENTRICITY,INCLINATION,RA_OF_ASC_NODE,ARG_OF_PERICENTER,MEAN_ANOMALY,EPHEMERIS_TYPE,CLASSIFICATION_TYPE,NORAD_CAT_ID,ELEMENT_SET_NO,REV_AT_EPOCH,BSTAR,MEAN_MOTION_DOT,MEAN_MOTION_DDOT
GSAT-10,2012-051B,2026-07-07T12:25:30.234720,1.00269296,.0007825,0.0401,241.6547,213.4040,99.7846,0,U,38779,999,5030,0,-.149E-5,0
INTELSAT 23 (IS-23),2012-057A,2026-07-07T01:21:10.850112,1.00275567,.0000405,0.0130,52.9192,98.8720,100.5402,0,U,38867,999,5015,0,-.27E-5,0
BEIDOU-2 G6,2012-059A,2026-07-07T07:18:08.284320,1.00269050,.0009105,4.4692,73.3107,330.2059,75.2705,0,U,38953,999,5011,0,-.162E-5,0
LUCH-5B,2012-061A,2026-07-07T10:14:43.874880,1.00271756,.0003487,10.5244,49.6770,139.6998,233.4585,0,U,38977,999,4981,0,-.129E-5,0
YAMAL 300K,2012-061B,2026-07-07T12:54:18.254592,1.00270623,.0000795,0.0141,31.7201,217.4722,52.8371,0,U,38978,999,4983,0,0,0
STAR ONE C3,2012-062A,2026-07-07T11:40:47.493984,1.00271024,.000221,0.0230,32.3060,92.1439,261.2129,0,U,38991,999,4996,0,0,0
EUTELSAT 21B,2012-062B,2026-07-07T12:08:07.373760,1.00270522,.0003207,0.0646,357.5124,108.9876,22.5838,0,U,38992,999,5003,0,.145E-5,0
ECHOSTAR 16,2012-065A,2026-07-07T11:07:34.766112,1.00270487,.0001962,0.0171,26.7817,81.3955,282.6582,0,U,39008,999,4984,0,-.267E-5,0
ZHONGXING-12,2012-067A,2026-07-07T14:09:44.042976,1.00270247,.0002807,0.0481,93.7317,7.3193,124.4397,0,U,39017,999,4971,0,-.191E-5,0
EUTELSAT 70B,2012-069A,2026-07-07T12:22:15.547008,1.00273777,.0003448,0.0631,343.6476,124.4042,73.4878,0,U,39020,999,4971,0,-.29E-6,0
YAMAL 402,2012-070A,2026-07-07T12:17:45.978144,1.00272097,.0003738,1.3137,83.9129,20.6233,60.2799,0,U,39022,999,4960,0,.1E-5,0
SKYNET 5D,2012-075A,2026-07-07T10:34:34.472064,1.00272144,.0003688,0.0667,6.5395,109.3321,20.9384,0,U,39034,999,4936,0,.114E-5,0
MEXSAT 3,2012-075B,2026-07-07T11:29:26.083104,1.00267623,.0001136,0.0197,28.8781,78.3033,235.8198,0,U,39035,999,725,0,0,0
TDRS 11,2013-004A,2026-07-07T12:18:48.032352,1.00276695,.000481,3.5506,31.5863,28.0933,236.1722,0,U,39070,999,4689,0,.93E-6,0
AMAZONAS 3,2013-006A,2026-07-07T11:08:41.726112,1.00269034,.0003258,0.0597,238.4121,272.7993,240.3816,0,U,39078,999,4511,0,-.267E-5,0
AZERSPACE 1,2013-006B,2026-07-07T12:15:16.216704,1.00272348,.0001872,0.0345,273.1398,229.5688,12.5764,0,U,39079,999,4901,0,.148E-5,0
SBIRS GEO-2 (USA 241),2013-011A,2026-07-06T22:06:40.978368,1.00271262,.000201,4.5312,52.5131,45.1363,109.1078,0,U,39120,999,4873,0,-.274E-5,0
EUTELSAT 117 WEST A,2013-012A,2026-07-07T11:28:48.643392,1.00271683,.0002764,0.0100,6.6089,104.2675,229.9583,0,U,39122,999,4863,0,.2E-7,0
ANIK G1,2013-014A,2026-07-07T11:31:10.914816,1.00271478,.0001718,0.0195,40.2894,73.6982,236.9487,0,U,39127,999,4845,0,-.59E-6,0
ZHONGXING-11,2013-020A,2026-07-07T14:59:38.191776,1.00272265,.0002329,0.0184,39.2867,41.4714,167.6534,0,U,39157,999,4810,0,-.275E-5,0
EUTELSAT 7B,2013-022A,2026-07-07T08:38:50.537760,1.00271280,.0003874,0.0638,355.5338,51.5217,14.9749,0,U,39163,999,4814,0,.63E-6,0
WGS F5 (USA 243),2013-024A,2026-07-07T01:31:13.364832,1.00268974,.0000305,0.0199,24.8211,189.7934,40.7253,0,U,39168,999,4737,0,0,0
SES-6,2013-026A,2026-07-07T11:50:31.562304,1.00270444,.0002477,0.0156,1.7534,99.5014,321.3352,0,U,39172,999,4792,0,-.246E-5,0
IRNSS-1A,2013-034A,2026-07-05T17:31:35.683968,1.00280420,.00178584,35.7606,63.6043,181.6646,356.4955,0,U,39199,999,4755,0,.68E-6,0
MUOS-2,2013-036A,2026-07-07T12:17:36.543264,1.00271100,.0052153,5.0349,45.5535,176.5018,59.7730,0,U,39206,999,4739,0,-.1E-7,0
ALPHASAT,2013-038A,2026-07-07T01:53:22.315200,1.00274018,.0002433,2.9984,1.1586,126.5430,210.5787,0,U,39215,999,4421,0,.147E-5,0
INSAT-3D,2013-038B,2026-07-07T12:39:06.179040,1.00272530,.0000512,1.9753,82.2918,58.1889,104.3133,0,U,39216,999,4728,0,-.325E-5,0
WGS F6 (USA 244),2013-041A,2026-07-06T16:34:22.999008,1.00272216,.0001624,0.0190,36.9691,186.5270,174.5993,0,U,39222,999,4625,0,.104E-5,0
ES'HAIL 1,2013-044A,2026-07-07T05:18:49.372128,1.00272113,.0002324,0.0467,0.0019,108.3214,282.0656,0,U,39233,999,4682,0,.158E-5,0
GSAT-7,2013-044B,2026-07-07T12:23:15.450720,1.00271409,.0002965,0.1303,90.4153,179.2556,275.5804,0,U,39234,999,4546,0,-.61E-6,0
AMOS-4,2013-045A,2026-07-07T12:20:38.201856,1.00272809,.0002205,0.0290,83.6135,355.2191,96.8118,0,U,39237,999,4716,0,.22E-6,0
AEHF-3 (USA 246),2013-050A,2026-07-07T10:55:58.438272,1.00269133,.008828,5.3426,67.0003,187.6953,70.4821,0,U,39256,999,4585,0,.41E-6,0
